ORBCOMM FM06            
1 25118U 97084G   26199.55814941  .00000381  00000+0  14155-3 0  9999
2 25118  45.0132 261.6839 0001739 243.3640 256.7954 14.47630839498937
ORBCOMM FM04            
1 25159U 98007C   26199.05046953  .00000332  00000+0  15935-3 0  9998
2 25159 107.9632 232.9431 0041988 272.0767  87.5566 14.35787388481023
ORBCOMM FM19            
1 25415U 98046C   26199.47137852  .00000381  00000+0  16645-3 0  9994
2 25415  44.9939  94.8486 0003242  84.3427  85.7057 14.39544771461283
ORBCOMM FM20            
1 25416U 98046D   26199.13528686  .00000282  00000+0  13871-3 0  9995
2 25416  44.9939 104.7114 0001161  17.6041 342.4847 14.38102815461246
ORBCOMM FM27            
1 25481U 98053G   26199.00876245  .00000298  00000+0  14088-3 0  9996
2 25481  45.0034 188.9543 0002305 301.0141  59.0482 14.39187661454676
ORBCOMM FM32            
1 25982U 99065C   26199.50252733  .00000220  00000+0  12062-3 0  9996
2 25982  45.0160  25.0067 0005999 207.7644 152.2884 14.37170553391599
ORBCOMM FM109           
1 40086U 14040A   26199.32828541  .00000043  00000+0  45311-4 0  9991
2 40086  47.0031 304.2514 0001413 334.8943  25.1874 14.58873136638894
ORBCOMM FM110           
1 41182U 15081D   26199.46995336  .00000157  00000+0  69321-4 0  9990
2 41182  47.0001 213.5241 0003703 235.7933 124.2602 14.58920438562197
ORBCOMM FM118           
1 41183U 15081E   26199.43593014  .00000034  00000+0  43470-4 0  9996
2 41183  47.0024 214.0245 0003072 200.6027 159.4736 14.58905338562298
ORBCOMM FM112           
1 41184U 15081F   26199.50834076  .00000219  00000+0  82490-4 0  9991
2 41184  46.9986 122.1316 0003497 342.5987  17.4778 14.58941020563528
ORBCOMM FM113           
1 41185U 15081G   26199.14363926  .00000109  00000+0  59320-4 0  9997
2 41185  47.0002 124.2491 0002061 332.9618  27.1161 14.58883692563453
ORBCOMM FM108           
1 41187U 15081J   26199.58496944  .00000195  00000+0  77500-4 0  9999
2 41187  47.0057  33.7439 0002434 335.1382  24.9386 14.58913023564668
ORBCOMM FM117           
1 41188U 15081K   26199.55073342  .00000182  00000+0  74763-4 0  9994
2 41188  47.0021  32.5320 0002841 343.0529  17.0261 14.58900026564708
ORBCOMM FM116           
1 41189U 15081L   26199.18842828  .00000148  00000+0  67478-4 0  9994
2 41189  47.0016 124.0343 0001646 237.6891 122.3836 14.58908278563464
